NORAD_CAT_ID,OBJECT_NAME,OBJECT_TYPE,EPOCH,MEAN_MOTION,ECCENTRICITY,INCLINATION,RA_OF_ASC_NODE,ARG_OF_PERICENTER,MEAN_ANOMALY,BSTAR,MEAN_MOTION_DOT,MEAN_MOTION_DDOT,TLE_LINE0,TLE_LINE1,TLE_LINE2,SEMIMAJOR_AXIS,PERIOD,APOGEE,PERIGEE,DECAYED
52095.0,STARLINK-3701,PAYLOAD,2024-02-29 13:25:15,15.08849738,0.0001668,53.2188,167.2058,88.4051,271.7132,4.3614e-05,4.06e-06,0.0,0 STARLINK-3701,1 52095U 22029H   24060.55920574  .00000406  00000-0  43614-4 0  9997,2 52095  53.2188 167.2058 0001668  88.4051 271.7132 15.08849738109079,6917.851,95.437,540.87,538.562,0.0
52095.0,STARLINK-3701,PAYLOAD,2024-03-01 11:40:39,15.08840385,0.0001513,53.2176,163.0446,93.6328,266.4837,5.1461e-05,5.31e-06,0.0,0 STARLINK-3701,1 52095U 22029H   24061.48656900  .00000531  00000-0  51461-4 0  9997,2 52095  53.2176 163.0446 0001513  93.6328 266.4837 15.08840385109213,6917.879,95.438,540.791,538.698,0.0
52095.0,STARLINK-3701,PAYLOAD,2024-03-01 13:16:02,15.08845644,0.0001423,53.2176,162.7475,88.6408,271.4747,1.8393e-05,5e-08,0.0,0 STARLINK-3701,1 52095U 22029H   24061.55280696  .00000005  00000-0  18393-4 0  9993,2 52095  53.2176 162.7475 0001423  88.6408 271.4747 15.08845644109224,6917.863,95.437,540.713,538.744,0.0
52095.0,STARLINK-3701,PAYLOAD,2024-03-02 11:31:27,15.08834476,0.0001592,53.218,158.5846,96.653,263.4643,-4.6175e-05,-1.023e-05,0.0,0 STARLINK-3701,1 52095U 22029H   24062.48017659 -.00001023  00000-0 -46175-4 0  9995,2 52095  53.2180 158.5846 0001592  96.6530 263.4643 15.08834476109368,6917.897,95.438,540.864,538.661,0.0
52095.0,STARLINK-3701,PAYLOAD,2024-03-02 13:06:50,15.0883555,0.0001607,53.2182,158.2873,96.9251,263.1924,-3.7862e-05,-8.9e-06,0.0,0 STARLINK-3701,1 52095U 22029H   24062.54641576 -.00000890  00000-0 -37862-4 0  9997,2 52095  53.2182 158.2873 0001607  96.9251 263.1924 15.08835550109371,6917.894,95.438,540.871,538.647,0.0
52095.0,STARLINK-3701,PAYLOAD,2024-03-03 11:22:13,15.08840942,0.0001496,53.2177,154.1236,96.6246,263.4916,4.691e-05,4.59e-06,0.0,0 STARLINK-3701,1 52095U 22029H   24063.47377047  .00000459  00000-0  46910-4 0  9992,2 52095  53.2177 154.1236 0001496  96.6246 263.4916 15.08840942109511,6917.878,95.437,540.777,538.708,0.0
52095.0,STARLINK-3701,PAYLOAD,2024-03-03 16:08:22,15.08843072,0.0001722,53.2171,153.2245,111.5062,248.6113,9.4348e-05,1.214e-05,0.0,0 STARLINK-3701,1 52095U 22029H   24063.67248650  .00001214  00000-0  94348-4 0  9999,2 52095  53.2171 153.2245 0001722 111.5062 248.6113 15.08843072109544,6917.871,95.437,540.927,538.545,0.0
52095.0,STARLINK-3701,PAYLOAD,2024-03-04 11:12:59,15.08853662,0.000162,53.2176,149.6655,108.6788,251.438,0.00017155,2.444e-05,0.0,0 STARLINK-3701,1 52095U 22029H   24064.46735795  .00002444  00000-0  17155-3 0  9994,2 52095  53.2176 149.6655 0001620 108.6788 251.4380 15.08853662109669,6917.839,95.437,540.824,538.583,0.0
52095.0,STARLINK-3701,PAYLOAD,2024-03-04 12:48:22,15.08853533,0.0001467,53.2174,149.3679,100.2141,259.9017,0.00016808,2.389e-05,0.0,0 STARLINK-3701,1 52095U 22029H   24064.53359770  .00002389  00000-0  16808-3 0  9999,2 52095  53.2174 149.3679 0001467 100.2141 259.9017 15.08853533109678,6917.839,95.437,540.719,538.689,0.0
52095.0,STARLINK-3701,PAYLOAD,2024-03-04 22:20:42,15.08846525,0.0001209,53.2167,147.5806,76.3467,283.766,8.5573e-05,1.075e-05,0.0,0 STARLINK-3701,1 52095U 22029H   24064.93104211  .00001075  00000-0  85573-4 0  9998,2 52095  53.2167 147.5806 0001209  76.3467 283.7660 15.08846525109739,6917.86,95.437,540.562,538.889,0.0
52095.0,STARLINK-3701,PAYLOAD,2024-03-05 14:14:35,15.08825289,0.0001654,53.2181,144.6086,81.6846,278.4334,-0.00015475,-2.749e-05,0.0,0 STARLINK-3701,1 52095U 22029H   24065.59347056 -.00002749  00000-0 -15475-3 0  9991,2 52095  53.2181 144.6086 0001654  81.6846 278.4334 15.08825289109831,6917.925,95.438,540.935,538.646,0.0
52095.0,STARLINK-3701,PAYLOAD,2024-03-05 15:49:58,15.08826989,0.0001685,53.2178,144.308,75.1457,284.9722,-0.00016251,-2.873e-05,0.0,0 STARLINK-3701,1 52095U 22029H   24065.65971004 -.00002873  00000-0 -16251-3 0  9995,2 52095  53.2178 144.3080 0001685  75.1457 284.9722 15.08826989109840,6917.92,95.438,540.951,538.619,0.0
52095.0,STARLINK-3701,PAYLOAD,2024-03-06 10:54:35,15.08848425,0.0001784,53.2169,140.7442,65.8186,294.2993,-2.3988e-05,-6.7e-06,0.0,0 STARLINK-3701,1 52095U 22029H   24066.45457411 -.00000670  00000-0 -23988-4 0  9994,2 52095  53.2169 140.7442 0001784  65.8186 294.2993 15.08848425109963,6917.855,95.437,540.954,538.485,0.0
52095.0,STARLINK-3701,PAYLOAD,2024-03-06 12:29:57,15.08852543,0.0001788,53.2178,140.446,74.6489,285.4701,1.4213e-05,-6.2e-07,0.0,0 STARLINK-3701,1 52095U 22029H   24066.52080963 -.00000062  00000-0  14213-4 0  9991,2 52095  53.2178 140.4460 0001788  74.6489 285.4701 15.08852543109974,6917.842,95.437,540.944,538.47,0.0
52095.0,STARLINK-3701,PAYLOAD,2024-03-07 04:23:50,15.08823225,0.0001515,53.2154,137.4733,75.968,284.1481,0.00021275,3.098e-05,0.0,0 STARLINK-3701,1 52095U 22029H   24067.18322044  .00003098  00000-0  21275-3 0  9999,2 52095  53.2154 137.4733 0001515  75.9680 284.1481 15.08823225110071,6917.932,95.439,540.845,538.749,0.0
52095.0,STARLINK-3701,PAYLOAD,2024-03-07 10:45:23,15.08826637,0.0001411,53.2158,136.2804,83.405,276.7103,0.00010025,1.307e-05,0.0,0 STARLINK-3701,1 52095U 22029H   24067.44818597  .00001307  00000-0  10025-3 0  9993,2 52095  53.2158 136.2804 0001411  83.4050 276.7103 15.08826637110114,6917.921,95.438,540.762,538.81,0.0
52095.0,STARLINK-3701,PAYLOAD,2024-03-08 10:36:08,15.08858238,0.000152,53.2171,131.8197,77.5014,282.6148,3.1584e-05,2.15e-06,0.0,0 STARLINK-3701,1 52095U 22029H   24068.44176873  .00000215  00000-0  31584-4 0  9999,2 52095  53.2171 131.8197 0001520  77.5014 282.6148 15.08858238110263,6917.825,95.436,540.741,538.638,0.0
52095.0,STARLINK-3701,PAYLOAD,2024-03-08 13:46:54,15.08860562,0.0001548,53.2161,131.2239,86.2357,273.8812,4.5656e-05,4.39e-06,0.0,0 STARLINK-3701,1 52095U 22029H   24068.57424489  .00000439  00000-0  45656-4 0  9995,2 52095  53.2161 131.2239 0001548  86.2357 273.8812 15.08860562110285,6917.818,95.436,540.753,538.612,0.0
52095.0,STARLINK-3701,PAYLOAD,2024-03-09 10:26:56,15.08837195,0.000154,53.2158,127.359,90.2706,269.8462,0.00013666,1.887e-05,0.0,0 STARLINK-3701,1 52095U 22029H   24069.43537911  .00001887  00000-0  13666-3 0  9999,2 52095  53.2158 127.3590 0001540  90.2706 269.8462 15.08837195110419,6917.889,95.438,540.819,538.689,0.0
52095.0,STARLINK-3701,PAYLOAD,2024-03-09 13:37:42,15.0884119,0.0001552,53.2167,126.7638,92.2715,267.8455,9.3886e-05,1.207e-05,0.0,0 STARLINK-3701,1 52095U 22029H   24069.56785685  .00001207  00000-0  93886-4 0  9995,2 52095  53.2167 126.7638 0001552  92.2715 267.8455 15.08841190110432,6917.877,95.437,540.815,538.668,0.0
52095.0,STARLINK-3701,PAYLOAD,2024-03-10 13:28:30,15.08837658,0.000157,53.217,122.3008,100.2893,259.8276,6.7847e-05,7.92e-06,0.0,0 STARLINK-3701,1 52095U 22029H   24070.56145844  .00000792  00000-0  67847-4 0  9990,2 52095  53.2170 122.3008 0001570 100.2893 259.8276 15.08837658110588,6917.888,95.438,540.839,538.666,0.0
52095.0,STARLINK-3701,PAYLOAD,2024-03-11 03:46:58,15.08831978,0.0001586,53.2169,119.6239,97.5471,262.5701,3.2099e-05,2.23e-06,0.0,0 STARLINK-3701,1 52095U 22029H   24071.15762443  .00000223  00000-0  32099-4 0  9996,2 52095  53.2169 119.6239 0001586  97.5471 262.5701 15.08831978110671,6917.905,95.438,540.867,538.673,0.0
52095.0,STARLINK-3701,PAYLOAD,2024-03-11 10:08:31,15.08837733,0.0001413,53.2161,118.4391,92.409,267.7064,3.4713e-05,2.65e-06,0.0,0 STARLINK-3701,1 52095U 22029H   24071.42258169  .00000265  00000-0  34713-4 0  9992,2 52095  53.2161 118.4391 0001413  92.4090 267.7064 15.08837733110718,6917.887,95.438,540.73,538.775,0.0
52095.0,STARLINK-3701,PAYLOAD,2024-03-11 19:40:49,15.08839712,0.0001459,53.2167,116.6552,93.8834,266.2325,2.6519e-05,1.34e-06,0.0,0 STARLINK-3701,1 52095U 22029H   24071.82002116  .00000134  00000-0  26519-4 0  9995,2 52095  53.2167 116.6552 0001459  93.8834 266.2325 15.08839712110773,6917.881,95.438,540.756,538.737,0.0
52095.0,STARLINK-3701,PAYLOAD,2024-03-12 19:31:37,15.0884082,0.0001488,53.2169,112.1954,103.8375,256.2782,5.7465e-05,6.27e-06,0.0,0 STARLINK-3701,1 52095U 22029H   24072.81362319  .00000627  00000-0  57465-4 0  9990,2 52095  53.2169 112.1954 0001488 103.8375 256.2782 15.08840820110921,6917.878,95.438,540.772,538.714,0.0
52095.0,STARLINK-3701,PAYLOAD,2024-03-13 11:25:28,15.08843204,0.0001458,53.2168,109.2213,93.6742,266.4417,0.00012237,1.66e-05,0.0,0 STARLINK-3701,1 52095U 22029H   24073.47602189  .00001660  00000-0  12237-3 0  9990,2 52095  53.2168 109.2213 0001458  93.6742 266.4417 15.08843204111025,6917.871,95.437,540.744,538.727,0.0
52095.0,STARLINK-3701,PAYLOAD,2024-03-13 19:22:24,15.08842737,0.0001383,53.2161,107.7335,85.5835,274.5315,0.00010969,1.458e-05,0.0,0 STARLINK-3701,1 52095U 22029H   24073.80722297  .00001458  00000-0  10969-3 0  9995,2 52095  53.2161 107.7335 0001383  85.5835 274.5315 15.08842737111078,6917.872,95.437,540.694,538.78,0.0
52095.0,STARLINK-3701,PAYLOAD,2024-03-14 06:30:05,15.08873369,0.0001667,53.2164,105.6519,75.6228,284.4949,-0.00057874,-9.495e-05,0.0,0 STARLINK-3701,1 52095U 22029H   24074.27089504 -.00009495  00000-0 -57874-3 0  9991,2 52095  53.2164 105.6519 0001667  75.6228 284.4949 15.08873369111149,6917.778,95.435,540.797,538.49,0.0
52095.0,STARLINK-3701,PAYLOAD,2024-03-14 11:16:15,15.08840961,0.0001523,53.2169,104.7592,89.4665,270.6501,3.7374e-05,3.07e-06,0.0,0 STARLINK-3701,1 52095U 22029H   24074.46962632  .00000307  00000-0  37374-4 0  9999,2 52095  53.2169 104.7592 0001523  89.4665 270.6501 15.08840961111170,6917.877,95.437,540.796,538.689,0.0
52095.0,STARLINK-3701,PAYLOAD,2024-03-15 07:56:16,15.08845262,0.0001606,53.2174,100.8949,81.3435,278.7739,6.4413e-05,7.37e-06,0.0,0 STARLINK-3701,1 52095U 22029H   24075.33074386  .00000737  00000-0  64413-4 0  9997,2 52095  53.2174 100.8949 0001606  81.3435 278.7739 15.08845262111303,6917.864,95.437,540.84,538.618,0.0
